STARLINK-1818           
1 46716U 20073AY  23273.77011658 -.00004570  00000+0 -28802-3 0  9998
2 46716  53.0514 296.1110 0001584  82.4137 277.7032 15.06411302163110
STARLINK-1820           
1 46717U 20073AZ  23273.17621558  .00001741  00000+0  13573-3 0  9993
2 46717  53.0548 283.7765 0001446  93.2045 266.9110 15.06404637162750
STARLINK-1821           
1 46718U 20073BA  23273.35361538  .00019822  00000+0  13447-2 0  9991
2 46718  53.0535 298.0204 0001693  75.1527 284.9650 15.06433116163059
STARLINK-1822           
1 46719U 20073BB  23273.66460628  .00007034  00000+0  49044-3 0  9991
2 46719  53.0541 261.5847 0001689  80.9043 279.2137 15.06414964163593
STARLINK-1825           
1 46722U 20073BE  23273.50840967  .00019013  00000+0  12903-2 0  9999
2 46722  53.0527 297.2885 0001485  94.0267 266.0891 15.06445134163074
STARLINK-1826           
1 46723U 20073BF  23273.66690615  .00016770  00000+0  11418-2 0  9997
2 46723  53.0529 256.5673 0002216  83.0975 277.0266 15.06408168163666
STARLINK-1828           
1 46725U 20073BH  23273.33887424  .00024217  00000+0  16372-2 0  9998
2 46725  53.0528 298.0501 0001482  98.1396 261.9761 15.06442164163055
STARLINK-1829           
1 46726U 20073BJ  23273.76134263  .00000338  00000+0  41572-4 0  9992
2 46726  53.0528 281.1425 0001595  92.3808 267.7363 15.06409598163329
STARLINK-1830           
1 46727U 20073BK  23273.25408624  .00020777  00000+0  14085-2 0  9998
2 46727  53.0536 258.4287 0001390  82.9901 277.1246 15.06428801163608
STARLINK-1848           
1 46740U 20074B   23273.54618436  .00027290  00000+0  18412-2 0  9995
2 46740  53.0557   7.1181 0001701  98.4580 261.6602 15.06453492162303
STARLINK-1865           
1 46741U 20074C   23273.62957873  .00028909  00000+0  19483-2 0  9993
2 46741  53.0562   1.7388 0001374 106.6335 253.4805 15.06465774162394
STARLINK-1892           
1 46743U 20074E   23273.42317924  .00018407  00000+0  12503-2 0  9998
2 46743  53.0562   2.6702 0001743  92.0906 268.0283 15.06432224162361
STARLINK-1894           
1 46744U 20074F   23273.51838412  .00027897  00000+0  19657-2 0  9999
2 46744  53.0554   2.3538 0001451  85.4063 274.7091 15.04822977162359
STARLINK-1905           
1 46746U 20074H   23273.52270068 -.00007977  00000+0 -51721-3 0  9997
2 46746  53.0550   2.2268 0001764  84.1388 275.9802 15.06401805162379
STARLINK-1908           
1 46747U 20074J   23273.50425984  .00005135  00000+0  36313-3 0  9997
2 46747  53.0562   2.3063 0001451 119.7656 240.3478 15.06421626162371
STARLINK-1910           
1 46748U 20074K   23273.64434532  .00008290  00000+0  57469-3 0  9992
2 46748  53.0549   1.6701 0001430  87.2821 272.8332 15.06405212162392
STARLINK-1911           
1 46749U 20074L   23272.98825245  .00030565  00000+0  20609-2 0  9999
2 46749  53.0553   4.6270 0001670  82.3747 277.7431 15.06419398162272
STARLINK-1920           
1 46751U 20074N   23273.51532510  .00031242  00000+0  21039-2 0  9993
2 46751  53.0558   2.2567 0001408 114.2029 245.9107 15.06454574162373
STARLINK-1921           
1 46752U 20074P   23272.99561450  .00015504  00000+0  10571-2 0  9992
2 46752  53.0567   4.5897 0001308  99.3561 260.7576 15.06411070162276
STARLINK-1922           
1 46753U 20074Q   23273.55955310  .00028292  00000+0  19078-2 0  9997
2 46753  53.0565   2.0576 0001422 108.9902 251.1241 15.06454540162389
STARLINK-1923           
1 46754U 20074R   23273.63326956  .00030283  00000+0  20396-2 0  9993
2 46754  53.0549   1.7282 0001580  60.2269 299.8877 15.06464640162390
STARLINK-1924           
1 46755U 20074S   23272.97488373  .00029861  00000+0  20135-2 0  9993
2 46755  53.0560   9.6818 0001138  76.2673 283.8443 15.06430046162206
STARLINK-1925           
1 46756U 20074T   23273.53517640  .00008189  00000+0  56756-3 0  9996
2 46756  53.0539   7.5602 0001343 103.8154 256.2985 15.06428512162301
STARLINK-1926           
1 46757U 20074U   23273.54990342  .00017827  00000+0  12115-2 0  9991
2 46757  53.0550   7.3384 0001333  89.2133 270.9008 15.06435514162302
STARLINK-1928           
1 46758U 20074V   23273.55357558  .00023272  00000+0  15749-2 0  9996
2 46758  53.0573   7.0835 0001360 106.5901 253.5237 15.06427219162317
STARLINK-1833           
1 46759U 20074W   23273.61532536  .00019675  00000+0  13355-2 0  9998
2 46759  53.0554  16.8075 0001548  89.5009 270.6157 15.06415028161896
STARLINK-1896           
1 46760U 20074X   23273.56000764  .00028974  00000+0  19528-2 0  9997
2 46760  53.0561  17.0530 0001456 106.8135 253.3013 15.06461242162176
STARLINK-1903           
1 46764U 20074AB  23273.68532136  .00029303  00000+0  19741-2 0  9991
2 46764  53.0560  16.4891 0001379 110.2465 249.8673 15.06472989162195
STARLINK-1906           
1 46765U 20074AC  23273.54159378  .00004565  00000+0  32524-3 0  9998
2 46765  53.0571  17.1351 0001519 100.8839 259.2321 15.06393459161876
STARLINK-1916           
1 46766U 20074AD  23273.53420871  .00034809  00000+0  23403-2 0  9996
2 46766  53.0565  17.1714 0001598  90.1087 270.0086 15.06462179161882
STARLINK-1917           
1 46767U 20074AE  23273.56369358  .00025428  00000+0  17172-2 0  9995
2 46767  53.0567  17.0363 0001389 102.8816 257.2329 15.06457026162167
STARLINK-1918           
1 46768U 20074AF  23273.50103704  .00027820  00000+0  18764-2 0  9997
2 46768  53.0564  17.3192 0001797  90.8311 269.2884 15.06455631162166
STARLINK-1932           
1 46770U 20074AH  23273.70750770  .00027595  00000+0  18605-2 0  9996
2 46770  53.0565  16.9445 0001740  58.7497 301.3662 15.06474171162186
STARLINK-1936           
1 46772U 20074AK  23273.57382411  .00018902  00000+0  12836-2 0  9998
2 46772  53.0564  16.9841 0001390  95.2841 264.8307 15.06424430162178
STARLINK-1798           
1 46779U 20074AS  23273.47201560  .00029449  00000+0  19850-2 0  9990
2 46779  53.0555 352.4495 0001418  94.7815 265.3336 15.06449903162208
STARLINK-1832           
1 46780U 20074AT  23272.93019706  .00029253  00000+0  19735-2 0  9996
2 46780  53.0558 354.8838 0001358 110.6897 249.4238 15.06420565162400
STARLINK-1834           
1 46781U 20074AU  23273.47846503  .00032074  00000+0  21590-2 0  9997
2 46781  53.0561   2.4241 0001775 104.5384 255.5802 15.06458122162084
STARLINK-1835           
1 46782U 20074AV  23273.51625304  .00004200  00000+0  30071-3 0  9992
2 46782  53.0551 352.2520 0001210  85.3588 274.7539 15.06394120162218
STARLINK-1851           
1 46783U 20074AW  23273.59735524  .00019007  00000+0  12907-2 0  9995
2 46783  53.0551 351.8880 0001668 111.2982 248.8185 15.06421274162239
STARLINK-1882           
1 46784U 20074AX  23273.60008871  .00018770  00000+0  12747-2 0  9994
2 46784  53.0545 351.8666 0001324 107.3255 252.7879 15.06426826162178
STARLINK-1883           
1 46785U 20074AY  23273.51993363  .00011878  00000+0  81441-3 0  9994
2 46785  53.0547 352.2353 0001474  66.6567 293.4577 15.06425134162176
STARLINK-1893           
1 46786U 20074AZ  23273.43331764  .00027083  00000+0  18276-2 0  9997
2 46786  53.0540 332.6267 0001393  97.8778 262.2369 15.06450506162440
STARLINK-1899           
1 46787U 20074BA  23273.42594473  .00023052  00000+0  15597-2 0  9990
2 46787  53.0538 332.6570 0001333 100.5463 259.5677 15.06441276162447
STARLINK-1929           
1 46788U 20074BB  23273.48491868  .00022391  00000+0  15154-2 0  9995
2 46788  53.0537 332.3957 0001502  92.6939 267.4222 15.06447371162457
STARLINK-1930           
1 46789U 20074BC  23273.50797005  .00016731  00000+0  11386-2 0  9995
2 46789  53.0553   2.4501 0001265 102.0177 258.0953 15.06428370162031
STARLINK-1931           
1 46790U 20074BD  23272.74129544  .00007852  00000+0  54559-3 0  9993
2 46790  53.0559   5.7276 0001571  99.0771 261.0395 15.06391473162238
STARLINK-1933           
1 46791U 20074BE  23273.55217809  .00020094  00000+0  13626-2 0  9998
2 46791  53.0552   2.0872 0001253  91.6634 268.4499 15.06439564162035
STARLINK-1934           
1 46792U 20074BF  23273.51256082  .00021518  00000+0  14576-2 0  9998
2 46792  53.0557 352.2703 0001598  78.6483 281.4686 15.06438194162168
STARLINK-1941           
1 46793U 20074BG  23273.54112199  .00035211  00000+0  23669-2 0  9990
2 46793  53.0556   2.1421 0001378  98.5088 261.6057 15.06463977162039
STARLINK-1942           
1 46794U 20074BH  23273.54849822  .00027631  00000+0  18638-2 0  9998
2 46794  53.0558   2.1072 0001700  78.1577 281.9603 15.06455824162034
STARLINK-1944           
1 46796U 20074BK  23273.52361885  .00028108  00000+0  18956-2 0  9999
2 46796  53.0546 352.2229 0001559  79.8708 280.2457 15.06453787162172
STARLINK-1948           
1 46798U 20074BM  23273.55538327  .00038683  00000+0  25963-2 0  9996
2 46798  53.0546  17.0744 0001342  95.5976 264.5166 15.06475623161897
STARLINK-1777           
1 47122U 20088A   23273.57613717  .00029242  00000+0  19706-2 0  9991
2 47122  53.0547 341.9834 0001540 109.2860 250.8295 15.06462084157820
STARLINK-1785           
1 47124U 20088C   23273.43008941  .00029824  00000+0  20099-2 0  9998
2 47124  53.0555 347.6479 0001892  98.4203 261.7001 15.06450011157732
STARLINK-1812           
1 47126U 20088E   23273.46925053  .00026904  00000+0  18155-2 0  9991
2 47126  53.0555 342.4639 0001518 105.0024 255.1133 15.06454618157815
STARLINK-1837           
1 47128U 20088G   23273.42686604  .00008889  00000+0  61460-3 0  9995
2 47128  53.0540 322.6493 0001459  92.4091 267.7065 15.06416753158087
STARLINK-1838           
1 47129U 20088H   23273.45543486  .00024700  00000+0  16692-2 0  9995
2 47129  53.0546 332.5267 0001641  86.5920 273.5256 15.06447049157955
STARLINK-1843           
1 47133U 20088M   23273.58076483  .00013601  00000+0  92969-3 0  9992
2 47133  53.0545 331.9642 0001562  92.3448 267.7719 15.06420015157976
STARLINK-1844           
1 47134U 20088N   23273.48769403  .00013887  00000+0  94889-3 0  9992
2 47134  53.0551 342.3820 0001694  85.8411 274.2772 15.06417688157818
